GLOBALSTAR M084         
1 38040U 11080A   25221.11906466 -.00000085  00000+0  10374-3 0  9991
2 38040  51.9989 247.3328 0000576 136.1823 259.1581 12.62267907629638
GLOBALSTAR M080         
1 38041U 11080B   25221.32334509 -.00000084  00000+0  10814-3 0  9996
2 38041  52.0040 248.3219 0000229 270.6850 102.6468 12.62268131629645
GLOBALSTAR M082         
1 38042U 11080C   25221.20204167 -.00000123  00000+0 -10903-3 0  9994
2 38042  52.0052 204.1548 0000364 331.1184 141.6715 12.62267832630363
GLOBALSTAR M092         
1 38043U 11080D   25220.95094838 -.00000079  00000+0  13667-3 0  9997
2 38043  52.0091 295.3022 0000522 123.7413  46.9811 12.62265553628619
GLOBALSTAR M090         
1 38044U 11080E   25220.96779720 -.00000123  00000+0 -10607-3 0  9991
2 38044  52.0102 198.7212 0000333  32.9378 335.4857 12.62261535630289
GLOBALSTAR M086         
1 38045U 11080F   25221.23241601 -.00000111  00000+0 -41915-4 0  9999
2 38045  51.9874 198.3527 0001348  78.0104 295.6954 12.62275937630369
GLOBALSTAR M097         
1 39072U 13005A   25221.09790601 -.00000097  00000+0  35182-4 0  9993
2 39072  52.0042 113.3653 0000788  53.8011 306.2929 12.62265532577575
GLOBALSTAR M093         
1 39073U 13005B   25221.07162585 -.00000054  00000+0  27541-3 0  9998
2 39073  52.0102 106.6711 0001025  45.6055 314.4896 12.62225800577562
